{"type": "FeatureCollection", "features": [ {"type": "Feature", "properties": {"norad_id": 33779, "name": "COSMOS 2251 DEB", "group": "cosmos-2251-debris", "lat": -3.4045760223911827, "lon": 140.19269643158742, "alt_km": 672.2907859959105, "timestamp": "2025-12-27T23:26:37.756432+00:00", "meta": {"OBJECT_NAME": "COSMOS 2251 DEB", "OBJECT_ID": "1993-036U", "EPOCH": "2025-12-27T12:21:56.368800", "MEAN_MOTION": 14.70868687, "ECCENTRICITY": 0.0015602, "INCLINATION": 74.0449, "RA_OF_ASC_NODE": 142.0632, "ARG_OF_PERICENTER": 174.5591, "MEAN_ANOMALY": 258.8493, "EPHEMERIS_TYPE": 0, "CLASSIFICATION_TYPE": "U", "NORAD_CAT_ID": 33779, "ELEMENT_SET_NO": 999, "REV_AT_EPOCH": 88745, "BSTAR": 0.0030573, "MEAN_MOTION_DOT": 0.00018758, "MEAN_MOTION_DDOT": 0}, "tle": {"line1": "1 33779U 93036U   25361.51523575  .00018758  00000+0  30573-2 0  9998", "line2": "2 33779  74.0449 142.0632 0015602 174.5591 258.8493 14.70868687887459"}}, "geometry": {"type": "Point", "coordinates": [140.19269643158742, -3.4045760223911827]}}, {"type": "Feature", "properties": {"norad_id": 33782, "name": "COSMOS 2251 DEB", "group": "cosmos-2251-debris", "lat": -72.76240858906192, "lon": 136.7063788047451, "alt_km": 753.8390822712072, "timestamp": "2025-12-27T23:26:37.756443+00:00", "meta": {"OBJECT_NAME": "COSMOS 2251 DEB", "OBJECT_ID": "1993-036X", "EPOCH": "2025-12-27T02:55:24.142944", "MEAN_MOTION": 14.40483149, "ECCENTRICITY": 0.00211983, "INCLINATION": 74.0325, "RA_OF_ASC_NODE": 250.9485, "ARG_OF_PERICENTER": 313.8789, "MEAN_ANOMALY": 197.6156, "EPHEMERIS_TYPE": 0, "CLASSIFICATION_TYPE": "U", "NORAD_CAT_ID": 33782, "ELEMENT_SET_NO": 999, "REV_AT_EPOCH": 88333, "BSTAR": 0.00040038793, "MEAN_MOTION_DOT": 1.25e-05, "MEAN_MOTION_DDOT": 0}, "tle": {"line1": "1 33782U 93036X   25361.12180721  .00001250  00000+0  40039-3 0  9999", "line2": "2 33782  74.0325 250.9485 0021198 313.8789 197.6156 14.40483149883337"}}, "geometry": {"type": "Point", "coordinates": [136.7063788047451, -72.76240858906192]}}, {"type": "Feature", "properties": {"norad_id": 33785, "name": "COSMOS 2251 DEB", "group": "cosmos-2251-debris", "lat": -28.123921573277862, "lon": 21.1485209405706, "alt_km": 647.4936076772265, "timestamp": "2025-12-27T23:26:37.756454+00:00", "meta": {"OBJECT_NAME": "COSMOS 2251 DEB", "OBJECT_ID": "1993-036AA", "EPOCH": "2025-12-27T12:40:02.148096", "MEAN_MOTION": 14.70819345, "ECCENTRICITY": 0.002335, "INCLINATION": 73.8672, "RA_OF_ASC_NODE": 30.9286, "ARG_OF_PERICENTER": 328.0347, "MEAN_ANOMALY": 146.0768, "EPHEMERIS_TYPE": 0, "CLASSIFICATION_TYPE": "U", "NORAD_CAT_ID": 33785, "ELEMENT_SET_NO": 999, "REV_AT_EPOCH": 88724, "BSTAR": 0.0021217, "MEAN_MOTION_DOT": 0.00013011, "MEAN_MOTION_DDOT": 0}, "tle": {"line1": "1 33785U 93036AA  25361.52780264  .00013011  00000+0  21217-2 0  9998", "line2": "2 33785  73.8672  30.9286 0023350 328.0347 146.0768 14.70819345887242"}}, "geometry": {"type": "Point", "coordinates": [21.1485209405706, -28.123921573277862]}}, {"type": "Feature", "properties": {"norad_id": 33789, "name": "COSMOS 2251 DEB", "group": "cosmos-2251-debris", "lat": -15.917705544369749, "lon": 56.87297132183021, "alt_km": 1109.2374252231357, "timestamp": "2025-12-27T23:26:37.756464+00:00", "meta": {"OBJECT_NAME": "COSMOS 2251 DEB", "OBJECT_ID": "1993-036AE", "EPOCH": "2025-12-27T06:33:54.034848", "MEAN_MOTION": 13.88827445, "ECCENTRICITY": 0.0239406, "INCLINATION": 74.0642, "RA_OF_ASC_NODE": 62.7399, "ARG_OF_PERICENTER": 175.1551, "MEAN_ANOMALY": 252.9764, "EPHEMERIS_TYPE": 0, "CLASSIFICATION_TYPE": "U", "NORAD_CAT_ID": 33789, "ELEMENT_SET_NO": 999, "REV_AT_EPOCH": 85297, "BSTAR": 0.00067277, "MEAN_MOTION_DOT": 9.99e-06, "MEAN_MOTION_DDOT": 0}, "tle": {"line1": "1 33789U 93036AE  25361.27354207  .00000999  00000+0  67277-3 0  9996", "line2": "2 33789  74.0642  62.7399 0239406 175.1551 252.9764 13.88827445852976"}}, "geometry": {"type": "Point", "coordinates": [56.87297132183021, -15.917705544369749]}}, {"type": "Feature", "properties": {"norad_id": 33791, "name": "COSMOS 2251 DEB", "group": "cosmos-2251-debris", "lat": -42.4887138568338, "lon": -5.537950772902711, "alt_km": 762.0868420137413, "timestamp": "2025-12-27T23:26:37.756475+00:00", "meta": {"OBJECT_NAME": "COSMOS 2251 DEB", "OBJECT_ID": "1993-036AG", "EPOCH": "2025-12-27T12:34:02.697312", "MEAN_MOTION": 14.43207872, "ECCENTRICITY": 0.0029905, "INCLINATION": 74.1753, "RA_OF_ASC_NODE": 10.3538, "ARG_OF_PERICENTER": 204.5311, "MEAN_ANOMALY": 277.0677, "EPHEMERIS_TYPE": 0, "CLASSIFICATION_TYPE": "U", "NORAD_CAT_ID": 33791, "ELEMENT_SET_NO": 999, "REV_AT_EPOCH": 88265, "BSTAR": 0.0010363, "MEAN_MOTION_DOT": 3.48e-05, "MEAN_MOTION_DDOT": 0}, "tle": {"line1": "1 33791U 93036AG  25361.52364233  .00003480  00000+0  10363-2 0  9998", "line2": "2 33791  74.1753  10.3538 0029905 204.5311 277.0677 14.43207872882656"}}, "geometry": {"type": "Point", "coordinates": [-5.537950772902711, -42.4887138568338]}}, {"type": "Feature", "properties": {"norad_id": 33792, "name": "COSMOS 2251 DEB", "group": "cosmos-2251-debris", "lat": 67.58369250820601, "lon": 5.443735490158595, "alt_km": 872.8229247156751, "timestamp": "2025-12-27T23:26:37.756485+00:00", "meta": {"OBJECT_NAME": "COSMOS 2251 DEB", "OBJECT_ID": "1993-036AH", "EPOCH": "2025-12-27T07:46:50.219040", "MEAN_MOTION": 13.45854239, "ECCENTRICITY": 0.0427967, "INCLINATION": 73.9014, "RA_OF_ASC_NODE": 322.0531, "ARG_OF_PERICENTER": 24.0532, "MEAN_ANOMALY": 125.5179, "EPHEMERIS_TYPE": 0, "CLASSIFICATION_TYPE": "U", "NORAD_CAT_ID": 33792, "ELEMENT_SET_NO": 999, "REV_AT_EPOCH": 82638, "BSTAR": 0.0014081, "MEAN_MOTION_DOT": 1.442e-05, "MEAN_MOTION_DDOT": 0}, "tle": {"line1": "1 33792U 93036AH  25361.32419235  .00001442  00000+0  14081-2 0  9997", "line2": "2 33792  73.9014 322.0531 0427967  24.0532 125.5179 13.45854239826388"}}, "geometry": {"type": "Point", "coordinates": [5.443735490158595, 67.58369250820601]}}, {"type": "Feature", "properties": {"norad_id": 33793, "name": "COSMOS 2251 DEB", "group": "cosmos-2251-debris", "lat": 68.12983406151025, "lon": 167.92687570249234, "alt_km": 847.09488624205, "timestamp": "2025-12-27T23:26:37.756496+00:00", "meta": {"OBJECT_NAME": "COSMOS 2251 DEB", "OBJECT_ID": "1993-036AJ", "EPOCH": "2025-12-27T09:54:22.756032", "MEAN_MOTION": 14.27776321, "ECCENTRICITY": 0.0079028, "INCLINATION": 73.9812, "RA_OF_ASC_NODE": 123.2495, "ARG_OF_PERICENTER": 270.5211, "MEAN_ANOMALY": 146.0714, "EPHEMERIS_TYPE": 0, "CLASSIFICATION_TYPE": "U", "NORAD_CAT_ID": 33793, "ELEMENT_SET_NO": 999, "REV_AT_EPOCH": 87416, "BSTAR": 0.00089729, "MEAN_MOTION_DOT": 2.265e-05, "MEAN_MOTION_DDOT": 0}, "tle": {"line1": "1 33793U 93036AJ  25361.41276338  .00002265  00000+0  89729-3 0  9999", "line2": "2 33793  73.9812 123.2495 0079028 270.5211 146.0714 14.27776321874166"}}, "geometry": {"type": "Point", "coordinates": [167.92687570249234, 68.12983406151025]}}, {"type": "Feature", "properties": {"norad_id": 33795, "name": "COSMOS 2251 DEB", "group": "cosmos-2251-debris", "lat": -22.94537113064986, "lon": 38.52013820973985, "alt_km": 570.9782537957371, "timestamp": "2025-12-27T23:26:37.756506+00:00", "meta": {"OBJECT_NAME": "COSMOS 2251 DEB", "OBJECT_ID": "1993-036AL", "EPOCH": "2025-12-27T06:19:13.630080", "MEAN_MOTION": 15.06001552, "ECCENTRICITY": 0.0030299, "INCLINATION": 74.0312, "RA_OF_ASC_NODE": 46.9465, "ARG_OF_PERICENTER": 124.4256, "MEAN_ANOMALY": 305.4057, "EPHEMERIS_TYPE": 0, "CLASSIFICATION_TYPE": "U", "NORAD_CAT_ID": 33795, "ELEMENT_SET_NO": 999, "REV_AT_EPOCH": 90240, "BSTAR": 0.0012485, "MEAN_MOTION_DOT": 0.00018397, "MEAN_MOTION_DDOT": 0}, "tle": {"line1": "1 33795U 93036AL  25361.26335220  .00018397  00000+0  12485-2 0  9997", "line2": "2 33795  74.0312  46.9465 0030299 124.4256 305.4057 15.06001552902401"}}, "geometry": {"type": "Point", "coordinates": [38.52013820973985, -22.94537113064986]}}, {"type": "Feature", "properties": {"norad_id": 33797, "name": "COSMOS 2251 DEB", "group": "cosmos-2251-debris", "lat": 48.20667042260569, "lon": 24.66171938083661, "alt_km": 661.6673923439357, "timestamp": "2025-12-27T23:26:37.756517+00:00", "meta": {"OBJECT_NAME": "COSMOS 2251 DEB", "OBJECT_ID": "1993-036AN", "EPOCH": "2025-12-27T12:14:46.052736", "MEAN_MOTION": 14.57900917, "ECCENTRICITY": 0.0060336, "INCLINATION": 74.0476, "RA_OF_ASC_NODE": 6.8859, "ARG_OF_PERICENTER": 90.2158, "MEAN_ANOMALY": 33.3598, "EPHEMERIS_TYPE": 0, "CLASSIFICATION_TYPE": "U", "NORAD_CAT_ID": 33797, "ELEMENT_SET_NO": 999, "REV_AT_EPOCH": 89200, "BSTAR": 0.00046014, "MEAN_MOTION_DOT": 2.133e-05, "MEAN_MOTION_DDOT": 0}, "tle": {"line1": "1 33797U 93036AN  25361.51025524  .00002133  00000+0  46014-3 0  9997", "line2": "2 33797  74.0476   6.8859 0060336  90.2158  33.3598 14.57900917892001"}}, "geometry": {"type": "Point", "coordinates": [24.66171938083661, 48.20667042260569]}}, {"type": "Feature", "properties": {"norad_id": 33798, "name": "COSMOS 2251 DEB", "group": "cosmos-2251-debris", "lat": -67.92319906771239, "lon": 62.60898205525436, "alt_km": 716.7222745222143, "timestamp": "2025-12-27T23:26:37.756527+00:00", "meta": {"OBJECT_NAME": "COSMOS 2251 DEB", "OBJECT_ID": "1993-036AP", "EPOCH": "2025-12-27T09:05:57.484320", "MEAN_MOTION": 14.44634359, "ECCENTRICITY": 0.0092258, "INCLINATION": 74.0296, "RA_OF_ASC_NODE": 108.638, "ARG_OF_PERICENTER": 226.8297, "MEAN_ANOMALY": 190.599, "EPHEMERIS_TYPE": 0, "CLASSIFICATION_TYPE": "U", "NORAD_CAT_ID": 33798, "ELEMENT_SET_NO": 999, "REV_AT_EPOCH": 88805, "BSTAR": 0.00022713, "MEAN_MOTION_DOT": 7.99e-06, "MEAN_MOTION_DDOT": 0}, "tle": {"line1": "1 33798U 93036AP  25361.37913755  .00000799  00000+0  22713-3 0  9990", "line2": "2 33798  74.0296 108.6380 0092258 226.8297 190.5990 14.44634359888053"}}, "geometry": {"type": "Point", "coordinates": [62.60898205525436, -67.92319906771239]}}]}